NORAD_CAT_ID,OBJECT_NAME,OBJECT_TYPE,EPOCH,MEAN_MOTION,ECCENTRICITY,INCLINATION,RA_OF_ASC_NODE,ARG_OF_PERICENTER,MEAN_ANOMALY,BSTAR,MEAN_MOTION_DOT,MEAN_MOTION_DDOT,TLE_LINE0,TLE_LINE1,TLE_LINE2,SEMIMAJOR_AXIS,PERIOD,APOGEE,PERIGEE,DECAYED
52841.0,STARLINK-4065,PAYLOAD,2024-01-25 21:52:35,15.08840753,0.000148,53.2175,267.7464,110.3074,249.8077,-8.2608e-05,-1.602e-05,0.0,0 STARLINK-4065,1 52841U 22062M   24025.91151758 -.00001602  00000-0 -82608-4 0  9991,2 52841  53.2175 267.7464 0001480 110.3074 249.8077 15.08840753 88970,6917.878,95.438,540.767,538.719,0.0
52841.0,STARLINK-4065,PAYLOAD,2024-01-25 23:27:58,15.08804025,0.0001648,53.2174,267.4475,103.5697,256.5479,0.00040818,6.208e-05,0.0,0 STARLINK-4065,1 52841U 22062M   24025.97776284  .00006208  00000-0  40818-3 0  9995,2 52841  53.2174 267.4475 0001648 103.5697 256.5479 15.08804025 89478,6917.99,95.44,540.995,538.715,0.0
52841.0,STARLINK-4065,PAYLOAD,2024-01-26 23:18:44,15.08845962,0.0001342,53.2169,262.9872,94.6462,265.4684,0.00013613,1.88e-05,0.0,0 STARLINK-4065,1 52841U 22062M   24026.97134800  .00001880  00000-0  13613-3 0  9992,2 52841  53.2169 262.9872 0001342  94.6462 265.4684 15.08845962 89623,6917.862,95.437,540.656,538.799,0.0
52841.0,STARLINK-4065,PAYLOAD,2024-01-27 19:58:45,15.08840235,0.0001257,53.2159,259.1242,107.8107,252.3022,2.735e-05,1.47e-06,0.0,0 STARLINK-4065,1 52841U 22062M   24027.83247545  .00000147  00000-0  27350-4 0  9998,2 52841  53.2159 259.1242 0001257 107.8107 252.3022 15.08840235 89752,6917.88,95.438,540.614,538.875,0.0
52841.0,STARLINK-4065,PAYLOAD,2024-01-27 21:34:09,15.08840057,0.0001265,53.2165,258.8264,105.8142,254.299,2.4893e-05,1.08e-06,0.0,0 STARLINK-4065,1 52841U 22062M   24027.89871530  .00000108  00000-0  24893-4 0  9997,2 52841  53.2165 258.8264 0001265 105.8142 254.2990 15.08840057 89279,6917.88,95.438,540.62,538.87,0.0
52841.0,STARLINK-4065,PAYLOAD,2024-01-28 21:24:55,15.08848386,0.0001422,53.2172,254.3623,87.1053,273.0102,-7.8336e-05,-1.535e-05,0.0,0 STARLINK-4065,1 52841U 22062M   24028.89231399 -.00001535  00000-0 -78336-4 0  9999,2 52841  53.2172 254.3623 0001422  87.1053 273.0102 15.08848386 89429,6917.855,95.437,540.703,538.736,0.0
52841.0,STARLINK-4065,PAYLOAD,2024-01-29 00:35:42,15.08852581,0.0001501,53.2171,253.7661,88.7664,271.35,-0.00012282,-2.243e-05,0.0,0 STARLINK-4065,1 52841U 22062M   24029.02479214 -.00002243  00000-0 -12282-3 0  9999,2 52841  53.2171 253.7661 0001501  88.7664 271.3500 15.08852581 89937,6917.842,95.437,540.745,538.669,0.0
52841.0,STARLINK-4065,PAYLOAD,2024-01-30 00:26:28,15.08842486,0.000146,53.2171,249.3062,97.6949,262.4209,6.3779e-05,7.27e-06,0.0,0 STARLINK-4065,1 52841U 22062M   24030.01839005  .00000727  00000-0  63779-4 0  9999,2 52841  53.2171 249.3062 0001460  97.6949 262.4209 15.08842486 90080,6917.873,95.437,540.748,538.728,0.0
52841.0,STARLINK-4065,PAYLOAD,2024-01-30 19:31:07,15.08837486,0.0001338,53.2165,245.7376,93.1354,266.9791,-9.2772e-06,-4.36e-06,0.0,0 STARLINK-4065,1 52841U 22062M   24030.81327625 -.00000436  00000-0 -92772-5 0  9992,2 52841  53.2165 245.7376 0001338  93.1354 266.9791 15.08837486 90209,6917.888,95.438,540.679,538.827,0.0
52841.0,STARLINK-4065,PAYLOAD,2024-01-30 21:06:30,15.08837515,0.0001351,53.2166,245.44,93.8016,266.313,-7.7479e-06,-4.11e-06,0.0,0 STARLINK-4065,1 52841U 22062M   24030.87951601 -.00000411  00000-0 -77479-5 0  9995,2 52841  53.2166 245.4400 0001351  93.8016 266.3130 15.08837515 89721,6917.888,95.438,540.688,538.818,0.0
52841.0,STARLINK-4065,PAYLOAD,2024-01-31 00:17:16,15.08836765,0.0001383,53.2167,244.8471,95.8603,264.2547,-2.0672e-05,-6.17e-06,0.0,0 STARLINK-4065,1 52841U 22062M   24031.01199706 -.00000617  00000-0 -20672-4 0  9992,2 52841  53.2167 244.8471 0001383  95.8603 264.2547 15.08836765 89749,6917.89,95.438,540.712,538.799,0.0
52841.0,STARLINK-4065,PAYLOAD,2024-02-01 00:08:03,15.08832007,0.0001426,53.2167,240.3875,102.2346,257.8806,3.1934e-05,2.2e-06,0.0,0 STARLINK-4065,1 52841U 22062M   24032.00559933  .00000220  00000-0  31934-4 0  9995,2 52841  53.2167 240.3875 0001426 102.2346 257.8806 15.08832007 90386,6917.905,95.438,540.756,538.783,0.0
52841.0,STARLINK-4065,PAYLOAD,2024-02-01 20:48:04,15.08807029,0.0001437,53.2159,236.522,94.4875,265.6282,0.00047477,7.269e-05,0.0,0 STARLINK-4065,1 52841U 22062M   24032.86672113  .00007269  00000-0  47477-3 0  9993,2 52841  53.2159 236.5220 0001437  94.4875 265.6282 15.08807029 90021,6917.981,95.44,540.84,538.852,0.0
52841.0,STARLINK-4065,PAYLOAD,2024-02-02 19:03:28,15.08840274,0.0001757,53.2159,232.3579,116.2701,243.8471,-3.6495e-05,-8.69e-06,0.0,0 STARLINK-4065,1 52841U 22062M   24033.79408238 -.00000869  00000-0 -36495-4 0  9991,2 52841  53.2159 232.3579 0001757 116.2701 243.8471 15.08840274 90654,6917.88,95.438,540.96,538.529,0.0
52841.0,STARLINK-4065,PAYLOAD,2024-02-02 22:14:15,15.08836125,0.0001301,53.2157,231.7654,90.8119,269.3022,7.7825e-06,-1.64e-06,0.0,0 STARLINK-4065,1 52841U 22062M   24033.92656351 -.00000164  00000-0  77825-5 0  9997,2 52841  53.2157 231.7654 0001301  90.8119 269.3022 15.08836125 90187,6917.892,95.438,540.657,538.857,0.0
52841.0,STARLINK-4065,PAYLOAD,2024-02-03 12:32:43,15.08837598,0.0001303,53.2158,229.0882,92.8017,267.3124,1.329e-05,-7.6e-07,0.0,0 STARLINK-4065,1 52841U 22062M   24034.52272362 -.00000076  00000-0  13290-4 0  9997,2 52841  53.2158 229.0882 0001303  92.8017 267.3124 15.08837598 90278,6917.888,95.438,540.654,538.851,0.0
52841.0,STARLINK-4065,PAYLOAD,2024-02-03 20:29:38,15.08842446,0.0001314,53.2161,227.6021,85.2007,274.9135,3.2157e-05,2.24e-06,0.0,0 STARLINK-4065,1 52841U 22062M   24034.85392000  .00000224  00000-0  32157-4 0  9992,2 52841  53.2161 227.6021 0001314  85.2007 274.9135 15.08842446 90812,6917.873,95.437,540.647,538.829,0.0
52841.0,STARLINK-4065,PAYLOAD,2024-02-04 12:23:29,15.08841678,0.0001314,53.2162,224.6285,84.7011,275.4131,7.8684e-05,9.65e-06,0.0,0 STARLINK-4065,1 52841U 22062M   24035.51631883  .00000965  00000-0  78684-4 0  9998,2 52841  53.2162 224.6285 0001314  84.7011 275.4131 15.08841678 90426,6917.875,95.437,540.649,538.831,0.0
52841.0,STARLINK-4065,PAYLOAD,2024-02-04 18:45:02,15.08843298,0.0001323,53.2162,223.4392,84.314,275.8003,8.6776e-05,1.094e-05,0.0,0 STARLINK-4065,1 52841U 22062M   24035.78127719  .00001094  00000-0  86776-4 0  9990,2 52841  53.2162 223.4392 0001323  84.3140 275.8003 15.08843298 90467,6917.87,95.437,540.651,538.82,0.0
52841.0,STARLINK-4065,PAYLOAD,2024-02-05 05:52:44,15.08842944,0.0001322,53.2161,221.3576,83.3541,276.7601,7.0452e-05,8.34e-06,0.0,0 STARLINK-4065,1 52841U 22062M   24036.24495706  .00000834  00000-0  70452-4 0  9991,2 52841  53.2161 221.3576 0001322  83.3541 276.7601 15.08842944 91024,6917.871,95.437,540.651,538.822,0.0
52841.0,STARLINK-4065,PAYLOAD,2024-02-05 18:35:49,15.0884147,0.0001385,53.2166,218.9784,88.5623,271.5528,5.5829e-06,-1.99e-06,0.0,0 STARLINK-4065,1 52841U 22062M   24036.77487955 -.00000199  00000-0  55829-5 0  9993,2 52841  53.2166 218.9784 0001385  88.5623 271.5528 15.08841470 90617,6917.876,95.437,540.699,538.783,0.0
52841.0,STARLINK-4065,PAYLOAD,2024-02-06 12:05:03,15.08848278,0.0001317,53.2164,215.7063,100.5209,259.5931,4.7183e-05,4.63e-06,0.0,0 STARLINK-4065,1 52841U 22062M   24037.50351037  .00000463  00000-0  47183-4 0  9992,2 52841  53.2164 215.7063 0001317 100.5209 259.5931 15.08848278 91214,6917.855,95.437,540.631,538.809,0.0
52841.0,STARLINK-4065,PAYLOAD,2024-02-06 18:26:35,15.08850743,0.0001346,53.2166,214.5175,95.2501,264.8644,6.5113e-05,7.49e-06,0.0,0 STARLINK-4065,1 52841U 22062M   24037.76846706  .00000749  00000-0  65113-4 0  9992,2 52841  53.2166 214.5175 0001346  95.2501 264.8644 15.08850743 90763,6917.848,95.437,540.644,538.781,0.0
52841.0,STARLINK-4065,PAYLOAD,2024-02-07 11:55:51,15.08834417,0.0001295,53.2168,211.2458,92.7081,267.4059,-5.6138e-06,-3.77e-06,0.0,0 STARLINK-4065,1 52841U 22062M   24038.49711984 -.00000377  00000-0 -56138-5 0  9999,2 52841  53.2168 211.2458 0001295  92.7081 267.4059 15.08834417 91367,6917.897,95.438,540.658,538.867,0.0
52841.0,STARLINK-4065,PAYLOAD,2024-02-07 18:17:23,15.08835198,0.0001268,53.2165,210.0566,91.6286,268.4851,6.8347e-06,-1.79e-06,0.0,0 STARLINK-4065,1 52841U 22062M   24038.76208007 -.00000179  00000-0  68347-5 0  9990,2 52841  53.2165 210.0566 0001268  91.6286 268.4851 15.08835198 90914,6917.895,95.438,540.637,538.883,0.0
52841.0,STARLINK-4065,PAYLOAD,2024-02-08 14:57:24,15.08836037,0.0001255,53.2161,206.1906,85.531,274.5825,-5.5334e-05,-1.168e-05,0.0,0 STARLINK-4065,1 52841U 22062M   24039.62320423 -.00001168  00000-0 -55334-4 0  9994,2 52841  53.2161 206.1906 0001255  85.5310 274.5825 15.08836037 91047,6917.893,95.438,540.626,538.889,0.0
52841.0,STARLINK-4065,PAYLOAD,2024-02-08 16:32:47,15.08836761,0.0001266,53.2163,205.8934,88.1165,271.9972,-4.5049e-05,-1.005e-05,0.0,0 STARLINK-4065,1 52841U 22062M   24039.68944355 -.00001005  00000-0 -45049-4 0  9998,2 52841  53.2163 205.8934 0001266  88.1165 271.9972 15.08836761 91548,6917.89,95.438,540.631,538.879,0.0
52841.0,STARLINK-4065,PAYLOAD,2024-02-09 11:37:25,15.08834934,0.0001264,53.2164,202.3258,90.8721,269.2416,8.3939e-05,1.048e-05,0.0,0 STARLINK-4065,1 52841U 22062M   24040.48432344  .00001048  00000-0  83939-4 0  9993,2 52841  53.2164 202.3258 0001264  90.8721 269.2416 15.08834934 91178,6917.896,95.438,540.635,538.886,0.0
52841.0,STARLINK-4065,PAYLOAD,2024-02-09 17:58:57,15.0883875,0.0001266,53.2164,201.1362,89.7308,270.383,0.00011195,1.494e-05,0.0,0 STARLINK-4065,1 52841U 22062M   24040.74928141  .00001494  00000-0  11195-3 0  9996,2 52841  53.2164 201.1362 0001266  89.7308 270.3830 15.08838750 91703,6917.884,95.438,540.625,538.873,0.0
52841.0,STARLINK-4065,PAYLOAD,2024-02-10 09:52:49,15.08836383,0.0001343,53.2171,198.1644,97.0882,263.0263,7.9533e-05,9.78e-06,0.0,0 STARLINK-4065,1 52841U 22062M   24041.41168630  .00000978  00000-0  79533-4 0  9997,2 52841  53.2171 198.1644 0001343  97.0882 263.0263 15.08836383 91310,6917.891,95.438,540.686,538.827,0.0
